#dP2023 12 16 18  0  0.00000000      96 __u+U IGS20 EXT  IAC
## 2292 583200.00000000   900.00000000 60294 0.7500000000000
+  117   C06C07C08C09C10C11C12C13C14C16C19C20C21C22C23C24C25
+        C26C27C28C29C30C32C33C34C35C36C37C38C39C40C41C42C43
+        C44C45C46E02E03E04E05E07E08E09E10E11E12E13E15E18E19
+        E21E24E25E26E27E30E31E33E34E36G01G02G03G04G05G06G07
+        G08G09G10G11G12G13G14G15G16G17G18G19G20G21G22G23G24
+        G25G27G28G29G30G31G32J02J03J04R01R02R03R04R05R07R08
+        R09R11R12R13R14R15R16R17R18R19R20R21R22R24R26  0  0
++         9 12 11  9 10  8  8 10  8  9  9  7  8  8  7  8  8
++         8  8  8  8  8  9  8  8  9  7  7 11  9  9  6  8  6
++         8  8  8  7  8  8  9  8  9  7  8  7  7  8  7  8  9
++         7  7  7  8  7  7  8  9  7  7  6  6  9  7  8  8  7
++         7  7 10  7  7  8  7  8  6  8  8  8  7  6  7  9  7
++         7  7  8  7  7  8  7  9  8  8  9  9  8  8  8  8  9
++         7  8  8 10  8  7 10  8  8  8  8  9  8  7  0  0  0
%c M  cc GPS ccc cccc cccc cccc cccc ccccc ccccc ccccc ccccc
%c cc cc ccc ccc cccc cccc cccc cccc ccccc ccccc ccccc ccccc
%f  0.0000000  0.000000000  0.00000000000  0.000000000000000
%f  0.0000000  0.000000000  0.00000000000  0.000000000000000
%i    0    0    0    0      0      0      0      0         0
%i    0    0    0    0      0      0      0      0         0
/* IAC                                ULTRA-RAPID PREDICTION
/* S/V CLOCKS ARE ALIGNED TO GNSS TIME                      
/* G:C1WC2W R:C1PC2P E:C1XC5X C:C2IC6I J:C1CC2S             
/* PCV:IGS20_2290 OL/AL:FES2004  NONE     YN ORB:CoN CLK:CoN
*  2023 12 16 20 15  0.00000000
PC06 -19516.764130  32356.893586 -18967.086664    211.711790
PC07  -3728.081250  38545.852367 -16388.722042   -485.372333
PC08  -3336.344064  20390.859881  36773.657532    176.258778
PC09 -10232.609161  30702.082476 -26921.034092   -226.399092
PC10   2741.043896  40464.793145 -10080.174212    -56.034544
PC11  18277.336729 -20827.293385   3447.023335    309.787872
PC12  19692.190990  -5691.891951  18985.085793    823.916129
PC13   2763.730882  23301.354787  35239.871980    396.479872
PC14   8974.201649 -15239.799037 -21587.625430   -234.241244
PC16 -21261.872686  32033.102277 -17450.047048   -229.802371
PC19  -1853.429902  22300.603772  16684.535585   -951.333957
PC20 -13792.061431   7382.117143  23116.007204     22.827246
PC21  18427.971990  13402.847959 -16088.396137   -967.291462
PC22  11835.453853  25260.956573    226.367810   -184.073062
PC23 -10171.712379 -15770.020371  20646.198036   -802.963326
PC24  25842.105138  -4786.718836   9405.732683    698.913121
PC25   9907.149275 -14902.771591  21402.883246    279.653503
PC26  26123.373553   6691.607403  -7274.653150   -221.163683
PC27 -16602.272324  -3343.043698 -22196.112593    243.164842
PC28  -4469.524319 -18489.192525 -20409.686240    184.008647
PC29 -11623.041353  24830.338322   5211.856607    215.433513
PC30 -20061.470394  14671.656276 -12714.536645    -10.559556
PC32 -18550.667963 -13359.692358  16020.041208   -543.385488
PC33   1784.456024 -22275.396417 -16719.548784   -941.829841
PC34  19868.744577 -15875.288958  11456.952920    326.373130
PC35   5224.882656  18353.118558  20366.871677    479.183549
PC36 -11067.459084  14428.253632 -21150.876555    -90.365720
PC37 -25659.601684  -7638.414172   7822.722549   -927.316719
PC38 -12452.812143  19617.032364  35215.711674    124.475622
PC39 -23337.346079  32886.004071 -12633.014964     -6.141897
PC40  -8212.910033  36049.273564 -20022.489897    -48.124289
PC41 -11514.201394 -25402.930158   -944.087357   -873.850345
PC42  14580.899433  -5794.204173 -23037.047038   -479.977075
PC43  12244.203500 -24685.605601  -4343.163831     52.575124
PC44  16716.003756   3005.855646  22128.506939    324.870717
PC45  10704.192629  15594.230290 -20536.416031    -55.481569
PC46 -25295.712138   5403.900337 -10427.230791   -108.041380
PE02  10908.243272  22432.004202 -15961.871249     87.175428
PE03   2262.339908  28271.255403  -8472.760943    -80.560781
PE04 -13735.364336 -14126.698402  22089.666530   -281.627429
PE05 -10420.026707  25863.458350   9938.119784   4701.137841
PE07  17145.767174  -7822.939782 -22826.752129    -93.389981
PE08  13365.767679  14720.096892 -21932.467172   -193.224859
PE09 -17014.188014   7693.551645  22961.845018   -265.349620
PE10 -26183.239924   1327.439757 -13734.362979   -586.864864
PE11 -27995.303851   8816.547848  -3881.128480   3267.408375
PE12 -20716.034210  -5709.987896 -20359.201917   -821.709712
PE13  28012.138631  -8379.023996   4613.205377    -19.699477
PE15  20279.667905   6015.960560  20716.640920    -75.060372
PE18   8593.891050 -29507.730981   2999.438510    102.277217
PE19   -467.158669 -28914.026996   6302.598212  -1002.034642
PE21   7808.796556 -15071.862166  24244.318014   -569.186831
PE24 -23064.640237  -1786.645735 -18467.837436   -489.566415
PE25  -8161.979695  14830.284908 -24281.376288     -1.876919
PE26  18676.656918 -17873.222569 -14410.758050    311.614221
PE27  22862.325419   1368.926581  18758.542714   -225.804146
PE30  24111.926871  17073.336762   1974.123554   -747.327663
PE31 -24255.800326 -16800.905655  -2283.286837    -11.851426
PE33   -127.114492 -16857.568690 -24321.823375      4.313541
PE34    835.885994  16668.934670  24447.412875    -83.726094
PE36 -19241.363936  17657.156575  13948.903451   -158.623665
PG01   1939.337099 -15892.431147 -21476.052342    164.079371
PG02   8763.287437 -17776.298885 -17073.567302   -514.606448
PG03  -5796.538730 -19238.527926 -17568.987817     59.483103
PG04    679.489280 -25980.332186   5129.761630    241.259826
PG05  -6572.229675  13558.912568  21691.266895   -154.373993
PG06 -25233.309696   5890.157288  -6011.714766    475.905871
PG07 -14941.940046  -9580.446530  20372.466011    -13.571574
PG08   5094.434818 -25566.658033   3634.402593   -157.307280
PG09  -8289.217137 -20378.490483  14753.699723     28.866991
PG10  22978.885975   9467.572390  -9626.456739    -65.571813
PG11 -23133.695251  12003.837662   4998.424939   -503.413907
PG12   3706.215874  19690.781673 -17754.211685   -458.125040
PG13 -13305.221285  19933.267574  11007.598040    606.318957
PG14 -22705.218692 -12325.690611  -6533.804650    272.690489
PG15  -1994.843340  26087.905857   3343.126809    107.609729
PG16  13417.736299  -7780.662012  21289.913652   -402.879919
PG17 -13451.914982  -7135.600738 -21312.822324    721.881249
PG18  15907.724137   8125.687047  19730.120885   -507.998359
PG19 -15669.024615   2432.693324 -21441.165138    413.398954
PG20 -18017.645912   5619.733325  18670.742572    396.317643
PG21  11870.375622 -17763.459778 -14637.423149    141.341866
PG22 -21496.130798  -7454.485812 -13021.233189     64.882813
PG23  20623.095985  16749.651258   2275.975877    117.321797
PG24  -7589.168998  18675.391114 -17485.614073   -394.740571
PG25  15288.978466  19828.395491  -9591.594495    481.736444
PG27  12623.950857 -17455.840815  14986.005777    -83.789840
PG28  24673.620728  -4559.938910  -8724.270134    -71.891625
PG29   5620.087647  21441.743495  14512.861773   -609.708881
PG30 -22687.632587  -1861.040315  14021.316053   -456.680212
PG31  25045.422545  -9498.099856   -371.708627   -226.649421
PG32  14895.178866   2750.126874 -21633.712157   -596.922581
PJ02 -23520.625859  17843.280252 -25463.288958     -0.598851
PJ03 -28229.398936  31259.931244   8817.679245    -12.248610
PJ04 -25668.721846  27412.622548  25045.877044     74.359602
PR01 -12746.670962 -13177.140625  17737.293559     72.282349
PR02  -9740.683012   5247.195596  23029.674032    -22.343840
PR03  -1631.546499  20753.158503  14832.486685     91.044528
PR04   6972.236083  24515.678349  -1254.605107    215.652523
PR05  11888.293461  15195.596956 -16695.695676    123.896436
PR07   1168.218998 -21188.563461 -14073.161620     71.495436
PR08  -7303.124308 -24369.221362   1604.647521    -73.723242
PR09  22011.586544  -1348.704503  12764.166179    159.104432
PR11  -9623.103437 -12304.018372  20176.459594   -221.910181
PR12 -23599.463512  -8452.573127   4689.993270     34.542125
PR13 -23089.525722   -344.731150 -10848.389578    -42.372402
PR14  -7838.140659   9263.682795 -22432.555768     25.775505
PR15  10923.155147  12480.813890 -19365.757748     83.909749
PR16  23552.923231   8387.343738  -4974.020921     21.608173
PR17 -14531.122518  19427.186269   7831.069431     44.082955
PR18  -2333.199796  15110.428864  20456.026612    117.206485
PR19  10032.174027   4709.995405  22982.238427   -258.543148
PR20  19960.437496 -11723.567766  10686.182245   -105.262326
PR21  14428.064402 -19332.076869  -8325.277736    -61.508139
PR22   1615.838352 -14735.677175 -20722.955369     98.587185
PR24 -19668.080910  12773.013595  -9991.057964    -36.205158
PR26      0.000000      0.000000      0.000000     -0.479498
EOF
